{
  "properties": {
    "path": "operators/amenity/kindergarten",
    "exclude": {
      "generic": [
        "^(幼儿园|托儿所)$",
        "^association$",
        "^county government$",
        "^evangelische kirche(|ngemeinde)$",
        "^katholische kirche(|ngemeinde)$",
        "^kindergar(d|t)en$",
        "^montessori$",
        "^民間$"
      ]
    }
  },
  "items": [
    {
      "displayName": "Adelby 1 Kinder- und Jugenddienste gGmbH",
      "id": "adelby1kinderundjugenddiensteggmbh-747d0f",
      "locationSet": {"include": ["de"]},
      "tags": {
        "amenity": "kindergarten",
        "operator": "Adelby 1 Kinder- und Jugenddienste gGmbH"
      }
    },
    {
      "displayName": "Agrupamento de Escolas de Celorico de Basto",
      "id": "agrupamentodeescolasdeceloricodebasto-0ff93d",
      "locationSet": {"include": ["pt"]},
      "tags": {
        "amenity": "kindergarten",
        "operator": "Agrupamento de Escolas de Celorico de Basto"
      }
    },
    {
      "displayName": "Agrupamento de Escolas de Tondela Cândido de Figueiredo",
      "id": "agrupamentodeescolasdetondelacandidodefigueiredo-0ff93d",
      "locationSet": {"include": ["pt"]},
      "tags": {
        "amenity": "kindergarten",
        "operator": "Agrupamento de Escolas de Tondela Cândido de Figueiredo"
      }
    },
    {
      "displayName": "Ajuntament de Barcelona",
      "id": "ajuntamentdebarcelona-afa509",
      "locationSet": {"include": ["es"]},
      "tags": {
        "amenity": "kindergarten",
        "operator": "Ajuntament de Barcelona"
      }
    },
    {
      "displayName": "Akasia barnehage AS",
      "id": "akasiabarnehageas-04f073",
      "locationSet": {"include": ["no"]},
      "tags": {
        "amenity": "kindergarten",
        "operator": "Akasia barnehage AS"
      }
    },
    {
      "displayName": "Association des Maisons de quartier de Reims",
      "id": "associationdesmaisonsdequartierdereims-94d05d",
      "locationSet": {"include": ["fx"]},
      "tags": {
        "amenity": "kindergarten",
        "operator": "Association des Maisons de quartier de Reims"
      }
    },
    {
      "displayName": "AWO Familienglobus gGmbH, Liststr. 2, 40470 Düsseldorf",
      "id": "awofamilienglobusggmbhliststr240470dusseldorf-747d0f",
      "locationSet": {"include": ["de"]},
      "tags": {
        "amenity": "kindergarten",
        "operator": "AWO Familienglobus gGmbH, Liststr. 2, 40470 Düsseldorf"
      }
    },
    {
      "displayName": "AWO Regionalverband Rhein-Erft & Euskirchen e.V.",
      "id": "aworegionalverbandrheinerftandeuskirchenev-747d0f",
      "locationSet": {"include": ["de"]},
      "tags": {
        "amenity": "kindergarten",
        "operator": "AWO Regionalverband Rhein-Erft & Euskirchen e.V."
      }
    },
    {
      "displayName": "AWO Soziale Dienste gemeinnützige GmbH",
      "id": "awosozialedienstegemeinnutzigegmbh-747d0f",
      "locationSet": {"include": ["de"]},
      "tags": {
        "amenity": "kindergarten",
        "operator": "AWO Soziale Dienste gemeinnützige GmbH"
      }
    },
    {
      "displayName": "AWO Unterbezirk Dortmund",
      "id": "awounterbezirkdortmund-76bfc3",
      "locationSet": {
        "include": ["de-nw.geojson"]
      },
      "tags": {
        "amenity": "kindergarten",
        "operator": "AWO Unterbezirk Dortmund"
      }
    },
    {
      "displayName": "Bayerisches Rotes Kreuz",
      "id": "bayerischesroteskreuz-fd062c",
      "locationSet": {
        "include": ["de-by.geojson"]
      },
      "tags": {
        "amenity": "kindergarten",
        "operator": "Bayerisches Rotes Kreuz",
        "operator:short": "BRK",
        "operator:wikidata": "Q812433"
      }
    },
    {
      "displayName": "Białołęka",
      "id": "bialoleka-6b0035",
      "locationSet": {"include": ["pl"]},
      "tags": {
        "amenity": "kindergarten",
        "operator": "Białołęka",
        "operator:type": "government",
        "operator:wikidata": "Q855983"
      }
    },
    {
      "displayName": "Bielany",
      "id": "bielany-6b0035",
      "locationSet": {"include": ["pl"]},
      "tags": {
        "amenity": "kindergarten",
        "operator": "Bielany",
        "operator:type": "government",
        "operator:wikidata": "Q857304"
      }
    },
    {
      "displayName": "BKJ Betreungseinrichtungen für Kinder und Jugendliche der Stadt Eschweiler / AÖR",
      "id": "bkjbetreungseinrichtungenfurkinderundjugendlichederstadteschweileraor-76bfc3",
      "locationSet": {
        "include": ["de-nw.geojson"]
      },
      "tags": {
        "amenity": "kindergarten",
        "operator": "BKJ Betreungseinrichtungen für Kinder und Jugendliche der Stadt Eschweiler / AÖR"
      }
    },
    {
      "displayName": "BVZ",
      "id": "bvz-17b2fe",
      "locationSet": {
        "include": ["de-he.geojson"]
      },
      "matchNames": ["bvz gmbh"],
      "tags": {
        "amenity": "kindergarten",
        "operator": "BVZ",
        "operator:wikidata": "Q129769452"
      }
    },
    {
      "displayName": "Caritasverband Dortmund e.V.",
      "id": "caritasverbanddortmundev-0ff93d",
      "locationSet": {"include": ["de"]},
      "tags": {
        "amenity": "kindergarten",
        "operator": "Caritasverband Dortmund e.V."
      }
    },
    {
      "displayName": "CC Porte de DrômArdèche",
      "id": "ccportededromardeche-94d05d",
      "locationSet": {"include": ["fx"]},
      "tags": {
        "amenity": "kindergarten",
        "operator": "CC Porte de DrômArdèche"
      }
    },
    {
      "displayName": "Centre Communal d'Action Sociale",
      "id": "centrecommunaldactionsociale-94d05d",
      "locationSet": {"include": ["fx"]},
      "tags": {
        "amenity": "kindergarten",
        "operator": "Centre Communal d'Action Sociale"
      }
    },
    {
      "displayName": "CompaNanny",
      "id": "compananny-1b10f3",
      "locationSet": {"include": ["nl"]},
      "tags": {
        "amenity": "kindergarten",
        "operator": "CompaNanny"
      }
    },
    {
      "displayName": "Comune di Bologna",
      "id": "comunedibologna-0ff93d",
      "locationSet": {"include": ["it"]},
      "tags": {
        "amenity": "kindergarten",
        "operator": "Comune di Bologna"
      }
    },
    {
      "displayName": "Comune di Milano",
      "id": "comunedimilano-9b156a",
      "locationSet": {"include": ["it"]},
      "tags": {
        "amenity": "kindergarten",
        "operator": "Comune di Milano"
      }
    },
    {
      "displayName": "Comune di Modena",
      "id": "comunedimodena-9b156a",
      "locationSet": {"include": ["it"]},
      "tags": {
        "amenity": "kindergarten",
        "operator": "Comune di Modena"
      }
    },
    {
      "displayName": "Denk mit! Kinderbetreuungseinrichtungen GmbH & Co. KG",
      "id": "denkmitkinderbetreuungseinrichtungengmbhandcokg-0ff93d",
      "locationSet": {"include": ["de"]},
      "tags": {
        "amenity": "kindergarten",
        "operator": "Denk mit! Kinderbetreuungseinrichtungen GmbH & Co. KG"
      }
    },
    {
      "displayName": "Deutscher Kinderschutzbund Ortsverband Essen e.V.",
      "id": "deutscherkinderschutzbundortsverbandessenev-747d0f",
      "locationSet": {"include": ["de"]},
      "tags": {
        "amenity": "kindergarten",
        "operator": "Deutscher Kinderschutzbund Ortsverband Essen e.V."
      }
    },
    {
      "displayName": "Diakonisches Werk – Stadtmission Bayreuth e. V.",
      "id": "diakonischeswerkstadtmissionbayreuthev-747d0f",
      "locationSet": {"include": ["de"]},
      "tags": {
        "amenity": "kindergarten",
        "operator": "Diakonisches Werk – Stadtmission Bayreuth e. V."
      }
    },
    {
      "displayName": "Dirección General de Educación Inicial y Primaria",
      "id": "direcciongeneraldeeducacioninicialyprimaria-0ff93d",
      "locationSet": {"include": ["br"]},
      "tags": {
        "amenity": "kindergarten",
        "operator": "Dirección General de Educación Inicial y Primaria"
      }
    },
    {
      "displayName": "Eigenbetrieb Kindertageseinrichtungen Dresden",
      "id": "eigenbetriebkindertageseinrichtungendresden-747d0f",
      "locationSet": {"include": ["de"]},
      "tags": {
        "amenity": "kindergarten",
        "operator": "Eigenbetrieb Kindertageseinrichtungen Dresden"
      }
    },
    {
      "displayName": "Eigenbetrieb Kindertagesstätten der Stadt Halle (Saale)",
      "id": "eigenbetriebkindertagesstattenderstadthallesaale-0ff93d",
      "locationSet": {"include": ["de"]},
      "tags": {
        "amenity": "kindergarten",
        "operator": "Eigenbetrieb Kindertagesstätten der Stadt Halle (Saale)"
      }
    },
    {
      "displayName": "Elbkinder Vereinigung Hamburger Kitas gGmbH",
      "id": "elbkindervereinigunghamburgerkitasggmbh-595700",
      "locationSet": {
        "include": ["de-hh.geojson"]
      },
      "matchNames": [
        "vereinigung hamburger kindertagesstätten"
      ],
      "tags": {
        "amenity": "kindergarten",
        "operator": "Elbkinder Vereinigung Hamburger Kitas gGmbH",
        "operator:wikidata": "Q126896525"
      }
    },
    {
      "displayName": "Elterninitiative",
      "id": "elterninitiative-747d0f",
      "locationSet": {"include": ["de"]},
      "tags": {
        "amenity": "kindergarten",
        "operator": "Elterninitiative"
      }
    },
    {
      "displayName": "Esbjerg Kommune",
      "id": "esbjergkommune-251d72",
      "locationSet": {"include": ["dk"]},
      "tags": {
        "amenity": "kindergarten",
        "operator": "Esbjerg Kommune"
      }
    },
    {
      "displayName": "Espoon kaupunki",
      "id": "espoonkaupunki-f5d7fd",
      "locationSet": {"include": ["fi"]},
      "tags": {
        "amenity": "kindergarten",
        "operator": "Espoon kaupunki"
      }
    },
    {
      "displayName": "Evangelischer Kirchenkreis Dortmund",
      "id": "evangelischerkirchenkreisdortmund-76bfc3",
      "locationSet": {
        "include": ["de-nw.geojson"]
      },
      "matchNames": ["ev. kirchenkreis dortmund"],
      "tags": {
        "amenity": "kindergarten",
        "operator": "Evangelischer Kirchenkreis Dortmund",
        "operator:wikidata": "Q47462077"
      }
    },
    {
      "displayName": "Evangelischer Kirchenkreis Hamm",
      "id": "evangelischerkirchenkreishamm-76bfc3",
      "locationSet": {
        "include": ["de-nw.geojson"]
      },
      "tags": {
        "amenity": "kindergarten",
        "operator": "Evangelischer Kirchenkreis Hamm",
        "operator:wikidata": "Q47462166"
      }
    },
    {
      "displayName": "FABIDO",
      "id": "fabido-76bfc3",
      "locationSet": {
        "include": ["de-nw.geojson"]
      },
      "tags": {
        "amenity": "kindergarten",
        "operator": "FABIDO"
      }
    },
    {
      "displayName": "Florencia Benavidez",
      "id": "florenciabenavidez-0ff93d",
      "locationSet": {"include": ["ar"]},
      "tags": {
        "amenity": "kindergarten",
        "operator": "Florencia Benavidez"
      }
    },
    {
      "displayName": "FRÖBEL Bildung und Erziehung gGmbH",
      "id": "frobelbildungunderziehungggmbh-747d0f",
      "locationSet": {"include": ["de"]},
      "tags": {
        "amenity": "kindergarten",
        "operator": "FRÖBEL Bildung und Erziehung gGmbH"
      }
    },
    {
      "displayName": "Fröbel e.V.",
      "id": "frobelev-747d0f",
      "locationSet": {"include": ["de"]},
      "tags": {
        "amenity": "kindergarten",
        "operator": "Fröbel e.V."
      }
    },
    {
      "displayName": "Fundación Integra",
      "id": "fundacionintegra-6a0b6a",
      "locationSet": {"include": ["cl"]},
      "tags": {
        "amenity": "kindergarten",
        "operator": "Fundación Integra"
      }
    },
    {
      "displayName": "Gemeinde Hohe Börde",
      "id": "gemeindehoheborde-747d0f",
      "locationSet": {"include": ["de"]},
      "tags": {
        "amenity": "kindergarten",
        "operator": "Gemeinde Hohe Börde"
      }
    },
    {
      "displayName": "Gemeinnützige Trägergesellschaft Katholischer Kindertageseinrichtungen im Raum Trier mbH",
      "id": "gemeinnutzigetragergesellschaftkatholischerkindertageseinrichtungenimraumtriermbh-0ff93d",
      "locationSet": {"include": ["de"]},
      "tags": {
        "amenity": "kindergarten",
        "operator": "Gemeinnützige Trägergesellschaft Katholischer Kindertageseinrichtungen im Raum Trier mbH"
      }
    },
    {
      "displayName": "Generalitat Valenciana",
      "id": "generalitatvalenciana-afa509",
      "locationSet": {"include": ["es"]},
      "tags": {
        "amenity": "kindergarten",
        "operator": "Generalitat Valenciana",
        "operator:type": "public",
        "operator:wikidata": "Q2477285"
      }
    },
    {
      "displayName": "gmina",
      "id": "gmina-6b0035",
      "locationSet": {"include": ["pl"]},
      "tags": {
        "amenity": "kindergarten",
        "operator": "gmina"
      }
    },
    {
      "displayName": "Gmina Lublin",
      "id": "gminalublin-6b0035",
      "locationSet": {"include": ["pl"]},
      "tags": {
        "amenity": "kindergarten",
        "operator": "Gmina Lublin"
      }
    },
    {
      "displayName": "Gmina Miasto Rzeszów",
      "id": "gminamiastorzeszow-6b0035",
      "locationSet": {"include": ["pl"]},
      "tags": {
        "amenity": "kindergarten",
        "operator": "Gmina Miasto Rzeszów"
      }
    },
    {
      "displayName": "Goodstart Early Learning",
      "id": "goodstartearlylearning-6f7323",
      "locationSet": {"include": ["au"]},
      "tags": {
        "amenity": "kindergarten",
        "operator": "Goodstart Early Learning"
      }
    },
    {
      "displayName": "Gradski ured za obrazovanje",
      "id": "gradskiuredzaobrazovanje-e0fcf6",
      "locationSet": {"include": ["hr"]},
      "tags": {
        "amenity": "kindergarten",
        "operator": "Gradski ured za obrazovanje"
      }
    },
    {
      "displayName": "Hå kommune",
      "id": "hakommune-0ff93d",
      "locationSet": {"include": ["no"]},
      "tags": {
        "amenity": "kindergarten",
        "operator": "Hå kommune"
      }
    },
    {
      "displayName": "Helsingin kaupunki",
      "id": "helsinginkaupunki-f5d7fd",
      "locationSet": {"include": ["fi"]},
      "tags": {
        "amenity": "kindergarten",
        "operator": "Helsingin kaupunki"
      }
    },
    {
      "displayName": "INA.KINDER.GARTEN gGmbH",
      "id": "inakindergartenggmbh-0ff93d",
      "locationSet": {"include": ["de"]},
      "tags": {
        "amenity": "kindergarten",
        "operator": "INA.KINDER.GARTEN gGmbH"
      }
    },
    {
      "displayName": "Instituto del Niño y Adolescente del Uruguay",
      "id": "inau-0ff93d",
      "locationSet": {"include": ["uy"]},
      "tags": {
        "amenity": "kindergarten",
        "operator": "Instituto del Niño y Adolescente del Uruguay",
        "operator:short": "INAU",
        "operator:wikidata": "Q5918413"
      }
    },
    {
      "displayName": "Internationaler Bund",
      "id": "internationalerbund-747d0f",
      "locationSet": {"include": ["de"]},
      "tags": {
        "amenity": "kindergarten",
        "operator": "Internationaler Bund"
      }
    },
    {
      "displayName": "Järvenpään kaupunki",
      "id": "jarvenpaankaupunki-f5d7fd",
      "locationSet": {"include": ["fi"]},
      "tags": {
        "amenity": "kindergarten",
        "operator": "Järvenpään kaupunki"
      }
    },
    {
      "displayName": "Johanniter-Unfall-Hilfe e.V.",
      "id": "johanniterunfallhilfeev-747d0f",
      "locationSet": {"include": ["de"]},
      "matchNames": [
        "die johanniter",
        "johanniter"
      ],
      "tags": {
        "amenity": "kindergarten",
        "operator": "Johanniter-Unfall-Hilfe e.V.",
        "operator:wikidata": "Q14751117"
      }
    },
    {
      "displayName": "JU Centar za predškolsko vaspitanje i obrazovanje Banja Luka",
      "id": "jucentarzapredskolskovaspitanjeiobrazovanjebanjaluka-2bdb40",
      "locationSet": {"include": ["ba"]},
      "tags": {
        "amenity": "kindergarten",
        "operator": "JU Centar za predškolsko vaspitanje i obrazovanje Banja Luka"
      }
    },
    {
      "displayName": "Jugend- und Sozialwerk gemeinnützige GmbH",
      "id": "jugendundsozialwerkgemeinnutzigegmbh-747d0f",
      "locationSet": {"include": ["de"]},
      "tags": {
        "amenity": "kindergarten",
        "operator": "Jugend- und Sozialwerk gemeinnützige GmbH"
      }
    },
    {
      "displayName": "Jugendamt Landeshauptstadt Düsseldorf, Willi-Becker-Allee 7, 40227 Düsseldorf",
      "id": "jugendamtlandeshauptstadtdusseldorfwillibeckerallee740227dusseldorf-747d0f",
      "locationSet": {"include": ["de"]},
      "tags": {
        "amenity": "kindergarten",
        "operator": "Jugendamt Landeshauptstadt Düsseldorf, Willi-Becker-Allee 7, 40227 Düsseldorf"
      }
    },
    {
      "displayName": "Jugendamt Stadt Essen",
      "id": "jugendamtstadtessen-747d0f",
      "locationSet": {"include": ["de"]},
      "tags": {
        "amenity": "kindergarten",
        "operator": "Jugendamt Stadt Essen"
      }
    },
    {
      "displayName": "JUL",
      "id": "jul-747d0f",
      "locationSet": {"include": ["de"]},
      "matchNames": [
        "jul gemeinnützige gmbh",
        "jul ggmbh"
      ],
      "tags": {
        "amenity": "kindergarten",
        "operator": "JUL",
        "operator:wikidata": "Q129851119"
      }
    },
    {
      "displayName": "Junji",
      "id": "junji-6a0b6a",
      "locationSet": {"include": ["cl"]},
      "tags": {
        "amenity": "kindergarten",
        "operator": "Junji"
      }
    },
    {
      "displayName": "Kath. Kindertageseinrichtungen Hellweg",
      "id": "kathkindertageseinrichtungenhellweg-747d0f",
      "locationSet": {"include": ["de"]},
      "tags": {
        "amenity": "kindergarten",
        "operator": "Kath. Kindertageseinrichtungen Hellweg"
      }
    },
    {
      "displayName": "Kath. Kindertageseinrichtungen Östliches Ruhrgebiet gGmbH",
      "id": "kathkindertageseinrichtungenostlichesruhrgebietggmbh-747d0f",
      "locationSet": {"include": ["de"]},
      "tags": {
        "amenity": "kindergarten",
        "operator": "Kath. Kindertageseinrichtungen Östliches Ruhrgebiet gGmbH"
      }
    },
    {
      "displayName": "Katholische Gesamtkirchengemeinde Ravensburg",
      "id": "katholischegesamtkirchengemeinderavensburg-747d0f",
      "locationSet": {"include": ["de"]},
      "tags": {
        "amenity": "kindergarten",
        "operator": "Katholische Gesamtkirchengemeinde Ravensburg"
      }
    },
    {
      "displayName": "Katholische KiTa gGmbH Saarland",
      "id": "katholischekitaggmbhsaarland-747d0f",
      "locationSet": {"include": ["de"]},
      "tags": {
        "amenity": "kindergarten",
        "operator": "Katholische KiTa gGmbH Saarland"
      }
    },
    {
      "displayName": "Katholische KiTa gGmbH Trier",
      "id": "katholischekitaggmbhtrier-747d0f",
      "locationSet": {"include": ["de"]},
      "tags": {
        "amenity": "kindergarten",
        "operator": "Katholische KiTa gGmbH Trier"
      }
    },
    {
      "displayName": "Kidsa barnehager AS",
      "id": "kidsabarnehageras-04f073",
      "locationSet": {"include": ["no"]},
      "tags": {
        "amenity": "kindergarten",
        "operator": "Kidsa barnehager AS"
      }
    },
    {
      "displayName": "Kinder im Kiez GmbH",
      "id": "kinderimkiezgmbh-0ff93d",
      "locationSet": {"include": ["de"]},
      "tags": {
        "amenity": "kindergarten",
        "operator": "Kinder im Kiez GmbH"
      }
    },
    {
      "displayName": "Kinder in Wien",
      "id": "kinderinwien-0ff93d",
      "locationSet": {"include": ["at"]},
      "tags": {
        "amenity": "kindergarten",
        "operator": "Kinder in Wien"
      }
    },
    {
      "displayName": "Kinderfreunde",
      "id": "kinderfreunde-7bcf1a",
      "locationSet": {"include": ["at"]},
      "matchNames": [
        "die kinderfreunde",
        "österreichische kinderfreunde"
      ],
      "tags": {
        "amenity": "kindergarten",
        "operator": "Kinderfreunde",
        "operator:wikidata": "Q303525"
      }
    },
    {
      "displayName": "Kindergärten City",
      "id": "kindergartencity-4ea051",
      "locationSet": {
        "include": ["de-be.geojson"]
      },
      "matchNames": [
        "kindergärten city, eigenbetrieb von berlin"
      ],
      "tags": {
        "amenity": "kindergarten",
        "operator": "Kindergärten City",
        "operator:wikidata": "Q129782901"
      }
    },
    {
      "displayName": "Kindergärten NordOst",
      "id": "kindergartennordost-4ea051",
      "locationSet": {
        "include": ["de-be.geojson"]
      },
      "matchNames": [
        "kindergärten nordost, eigenbetrieb von berlin"
      ],
      "tags": {
        "amenity": "kindergarten",
        "operator": "Kindergärten NordOst",
        "operator:wikidata": "Q129783186"
      }
    },
    {
      "displayName": "Kinderhaus e. V.",
      "id": "kinderhausev-747d0f",
      "locationSet": {"include": ["de"]},
      "tags": {
        "amenity": "kindergarten",
        "operator": "Kinderhaus e. V."
      }
    },
    {
      "displayName": "Kindertagesstätten Berlin Süd-West",
      "id": "kindertagesstattenberlinsudwest-4ea051",
      "locationSet": {
        "include": ["de-be.geojson"]
      },
      "matchNames": [
        "kindertagesstätten berlin süd-west, eigenbetrieb von berlin"
      ],
      "tags": {
        "amenity": "kindergarten",
        "operator": "Kindertagesstätten Berlin Süd-West",
        "operator:wikidata": "Q129852054"
      }
    },
    {
      "displayName": "Kindertagesstätten Nordwest",
      "id": "kindertagesstattennordwest-4ea051",
      "locationSet": {
        "include": ["de-be.geojson"]
      },
      "matchNames": [
        "kindergärten nordwest, eigenbetrieb von berlin",
        "kindertagesstätten nordwest eigenbetrieb von berlin"
      ],
      "tags": {
        "amenity": "kindergarten",
        "operator": "Kindertagesstätten Nordwest",
        "operator:wikidata": "Q129783766"
      }
    },
    {
      "displayName": "Kindertagesstätten SüdOst",
      "id": "kindertagesstattensudost-4ea051",
      "locationSet": {
        "include": ["de-be.geojson"]
      },
      "matchNames": [
        "kindertagesstätten südost, eigenbetrieb von berlin"
      ],
      "tags": {
        "amenity": "kindergarten",
        "operator": "Kindertagesstätten SüdOst",
        "operator:wikidata": "Q129784257"
      }
    },
    {
      "displayName": "Kinderzentren Kunterbunt gGmbH",
      "id": "kinderzentrenkunterbuntggmbh-0ff93d",
      "locationSet": {"include": ["de"]},
      "tags": {
        "amenity": "kindergarten",
        "operator": "Kinderzentren Kunterbunt gGmbH"
      }
    },
    {
      "displayName": "KiTa Bremen",
      "id": "kitabremen-f9b96a",
      "locationSet": {
        "include": ["de-hb.geojson"]
      },
      "tags": {
        "amenity": "kindergarten",
        "operator": "KiTa Bremen",
        "operator:wikidata": "Q129772069"
      }
    },
    {
      "displayName": "Kita Frankfurt",
      "id": "kitafrankfurt-17b2fe",
      "locationSet": {
        "include": ["de-he.geojson"]
      },
      "matchNames": [
        "der magistrat der stadt",
        "stadt frankfurt am main"
      ],
      "tags": {
        "amenity": "kindergarten",
        "operator": "Kita Frankfurt",
        "operator:wikidata": "Q129771625"
      }
    },
    {
      "displayName": "Kitaverband Diepholz",
      "id": "kitaverbanddiepholz-b371e3",
      "locationSet": {
        "include": ["de-ni.geojson"]
      },
      "matchNames": [
        "ev.-luth. kindertagesstättenverband grafschaft diepholz"
      ],
      "tags": {
        "amenity": "kindergarten",
        "operator": "Kitaverband Diepholz",
        "operator:wikidata": "Q129849272"
      }
    },
    {
      "displayName": "Klax Berlin gGmbH",
      "id": "klaxberlinggmbh-0ff93d",
      "locationSet": {"include": ["de"]},
      "tags": {
        "amenity": "kindergarten",
        "operator": "Klax Berlin gGmbH"
      }
    },
    {
      "displayName": "Klepp kommune",
      "id": "kleppkommune-0ff93d",
      "locationSet": {"include": ["no"]},
      "tags": {
        "amenity": "kindergarten",
        "operator": "Klepp kommune"
      }
    },
    {
      "displayName": "Kolding Kommune",
      "id": "koldingkommune-251d72",
      "locationSet": {"include": ["dk"]},
      "tags": {
        "amenity": "kindergarten",
        "operator": "Kolding Kommune"
      }
    },
    {
      "displayName": "Kungsbacka kommun",
      "id": "kungsbackakommun-b6a588",
      "locationSet": {"include": ["se"]},
      "tags": {
        "amenity": "kindergarten",
        "operator": "Kungsbacka kommun",
        "operator:wikidata": "Q499380"
      }
    },
    {
      "displayName": "La Maison Bleue",
      "id": "lamaisonbleue-94d05d",
      "locationSet": {"include": ["fx"]},
      "tags": {
        "amenity": "kindergarten",
        "operator": "La Maison Bleue"
      }
    },
    {
      "displayName": "Læringsverkstedet AS",
      "id": "laeringsverkstedetas-04f073",
      "locationSet": {"include": ["no"]},
      "tags": {
        "amenity": "kindergarten",
        "operator": "Læringsverkstedet AS"
      }
    },
    {
      "displayName": "Land Niederösterreich",
      "id": "landniederosterreich-7bcf1a",
      "locationSet": {"include": ["at"]},
      "tags": {
        "amenity": "kindergarten",
        "operator": "Land Niederösterreich"
      }
    },
    {
      "displayName": "Landeshauptstadt Stuttgart",
      "id": "landeshauptstadtstuttgart-747d0f",
      "locationSet": {"include": ["de"]},
      "tags": {
        "amenity": "kindergarten",
        "operator": "Landeshauptstadt Stuttgart"
      }
    },
    {
      "displayName": "Lillehammer kommune",
      "id": "lillehammerkommune-04f073",
      "locationSet": {"include": ["no"]},
      "tags": {
        "amenity": "kindergarten",
        "operator": "Lillehammer kommune"
      }
    },
    {
      "displayName": "Luleå kommun",
      "id": "luleakommun-b6a588",
      "locationSet": {"include": ["se"]},
      "tags": {
        "amenity": "kindergarten",
        "operator": "Luleå kommun"
      }
    },
    {
      "displayName": "Mairie de Paris",
      "id": "mairiedeparis-94d05d",
      "locationSet": {"include": ["fx"]},
      "tags": {
        "amenity": "kindergarten",
        "operator": "Mairie de Paris"
      }
    },
    {
      "displayName": "Mairie de Toulouse",
      "id": "mairiedetoulouse-94d05d",
      "locationSet": {"include": ["fx"]},
      "tags": {
        "amenity": "kindergarten",
        "operator": "Mairie de Toulouse"
      }
    },
    {
      "displayName": "Malmö stad",
      "id": "malmostad-b6a588",
      "locationSet": {"include": ["se"]},
      "tags": {
        "amenity": "kindergarten",
        "operator": "Malmö stad"
      }
    },
    {
      "displayName": "Mokotów",
      "id": "mokotow-0ff93d",
      "locationSet": {"include": ["pl"]},
      "tags": {
        "amenity": "kindergarten",
        "operator": "Mokotów"
      }
    },
    {
      "displayName": "Nachbarschaftsheim Schöneberg e.V.",
      "id": "nachbarschaftsheimschonebergev-747d0f",
      "locationSet": {"include": ["de"]},
      "tags": {
        "amenity": "kindergarten",
        "operator": "Nachbarschaftsheim Schöneberg e.V."
      }
    },
    {
      "displayName": "Narvik kommune",
      "id": "narvikkommune-0ff93d",
      "locationSet": {"include": ["no"]},
      "tags": {
        "amenity": "kindergarten",
        "operator": "Narvik kommune"
      }
    },
    {
      "displayName": "Norlandia",
      "id": "norlandia-768407",
      "locationSet": {"include": ["fi", "se"]},
      "note": "the Finnish and Swedish schools are separate networks, but neither one currently has a QID",
      "tags": {
        "amenity": "kindergarten",
        "operator": "Norlandia"
      }
    },
    {
      "displayName": "Norrköpings kommun",
      "id": "norrkopingskommun-0ff93d",
      "locationSet": {"include": ["se"]},
      "tags": {
        "amenity": "kindergarten",
        "operator": "Norrköpings kommun"
      }
    },
    {
      "displayName": "Nurmijärven kunta",
      "id": "nurmijarvenkunta-0ff93d",
      "locationSet": {"include": ["fi"]},
      "tags": {
        "amenity": "kindergarten",
        "operator": "Nurmijärven kunta"
      }
    },
    {
      "displayName": "Ochota",
      "id": "ochota-0ff93d",
      "locationSet": {"include": ["pl"]},
      "tags": {
        "amenity": "kindergarten",
        "operator": "Ochota"
      }
    },
    {
      "displayName": "Ogólnopolski Operator Oświaty",
      "id": "ogolnopolskioperatoroswiaty-6b0035",
      "locationSet": {"include": ["pl"]},
      "tags": {
        "amenity": "kindergarten",
        "operator": "Ogólnopolski Operator Oświaty"
      }
    },
    {
      "displayName": "Orte für Kinder GmbH",
      "id": "ortefurkindergmbh-0ff93d",
      "locationSet": {"include": ["de"]},
      "tags": {
        "amenity": "kindergarten",
        "operator": "Orte für Kinder GmbH"
      }
    },
    {
      "displayName": "Outlaw gGmbH",
      "id": "outlawggmbh-747d0f",
      "locationSet": {"include": ["de"]},
      "tags": {
        "amenity": "kindergarten",
        "operator": "Outlaw gGmbH"
      }
    },
    {
      "displayName": "Partou",
      "id": "partou-0ff93d",
      "locationSet": {"include": ["nl"]},
      "tags": {
        "amenity": "kindergarten",
        "operator": "Partou"
      }
    },
    {
      "displayName": "Pfefferwerk Stadtkultur gGmbH",
      "id": "pfefferwerkstadtkulturggmbh-0ff93d",
      "locationSet": {"include": ["de"]},
      "tags": {
        "amenity": "kindergarten",
        "operator": "Pfefferwerk Stadtkultur gGmbH"
      }
    },
    {
      "displayName": "Pilke päiväkodit Oy",
      "id": "pilkepaivakoditoy-f5d7fd",
      "locationSet": {"include": ["fi"]},
      "tags": {
        "amenity": "kindergarten",
        "operator": "Pilke päiväkodit Oy"
      }
    },
    {
      "displayName": "Pinal Gila Community Child Services",
      "id": "pinalgilacommunitychildservices-3229cd",
      "locationSet": {"include": ["us"]},
      "tags": {
        "amenity": "kindergarten",
        "operator": "Pinal Gila Community Child Services"
      }
    },
    {
      "displayName": "Postillion e.V.",
      "id": "postillionev-0ff93d",
      "locationSet": {"include": ["de"]},
      "tags": {
        "amenity": "kindergarten",
        "operator": "Postillion e.V."
      }
    },
    {
      "displayName": "Praga-Północ",
      "id": "pragapolnoc-6b0035",
      "locationSet": {"include": ["pl"]},
      "tags": {
        "amenity": "kindergarten",
        "operator": "Praga-Północ"
      }
    },
    {
      "displayName": "Praga-Południe",
      "id": "pragapoludnie-6b0035",
      "locationSet": {"include": ["pl"]},
      "tags": {
        "amenity": "kindergarten",
        "operator": "Praga-Południe"
      }
    },
    {
      "displayName": "Prefeitura Municipal de Blumenau",
      "id": "prefeituramunicipaldeblumenau-c7e972",
      "locationSet": {"include": ["br"]},
      "tags": {
        "amenity": "kindergarten",
        "operator": "Prefeitura Municipal de Blumenau"
      }
    },
    {
      "displayName": "Prefeitura Municipal de Florianópolis",
      "id": "prefeituramunicipaldeflorianopolis-c7e972",
      "locationSet": {"include": ["br"]},
      "tags": {
        "amenity": "kindergarten",
        "operator": "Prefeitura Municipal de Florianópolis"
      }
    },
    {
      "displayName": "Prefeitura Municipal de Itajaí",
      "id": "prefeituramunicipaldeitajai-c7e972",
      "locationSet": {"include": ["br"]},
      "tags": {
        "amenity": "kindergarten",
        "operator": "Prefeitura Municipal de Itajaí"
      }
    },
    {
      "displayName": "pro futura",
      "id": "profutura-747d0f",
      "locationSet": {"include": ["de"]},
      "tags": {
        "amenity": "kindergarten",
        "operator": "pro futura"
      }
    },
    {
      "displayName": "pro multis gGmbH",
      "id": "promultisggmbh-747d0f",
      "locationSet": {"include": ["de"]},
      "tags": {
        "amenity": "kindergarten",
        "operator": "pro multis gGmbH"
      }
    },
    {
      "displayName": "QRMSHBM",
      "id": "qrmshbm-637abd",
      "locationSet": {"include": ["uz"]},
      "tags": {
        "amenity": "kindergarten",
        "operator": "QRMSHBM"
      }
    },
    {
      "displayName": "Rīgas pašvaldība",
      "id": "rigaspasvaldiba-e433d7",
      "locationSet": {"include": ["lv"]},
      "tags": {
        "amenity": "kindergarten",
        "operator": "Rīgas pašvaldība"
      }
    },
    {
      "displayName": "San José Unified School District",
      "id": "sanjoseunifiedschooldistrict-2a3fae",
      "locationSet": {
        "include": [[-121.88, 37.28, 15]]
      },
      "tags": {
        "amenity": "kindergarten",
        "operator": "San José Unified School District",
        "operator:short": "SJUSD",
        "operator:type": "public",
        "operator:wikidata": "Q7414497"
      }
    },
    {
      "displayName": "Santa Casa da Misericórdia",
      "id": "santacasadamisericordia-0ff93d",
      "locationSet": {"include": ["pt"]},
      "tags": {
        "amenity": "kindergarten",
        "operator": "Santa Casa da Misericórdia"
      }
    },
    {
      "displayName": "Save The Children",
      "id": "savethechildren-0ff93d",
      "locationSet": {"include": ["001"]},
      "tags": {
        "amenity": "kindergarten",
        "operator": "Save The Children",
        "operator:wikidata": "Q215934"
      }
    },
    {
      "displayName": "Sinne",
      "id": "sinne-1b10f3",
      "locationSet": {"include": ["nl"]},
      "tags": {
        "amenity": "kindergarten",
        "operator": "Sinne"
      }
    },
    {
      "displayName": "Sistema Estatal Para El Desarrollo Integral De La Familia",
      "id": "sistemaestatalparaeldesarrollointegraldelafamilia-cbe62e",
      "locationSet": {"include": ["mx"]},
      "tags": {
        "amenity": "kindergarten",
        "operator": "Sistema Estatal Para El Desarrollo Integral De La Familia"
      }
    },
    {
      "displayName": "SKOzoK",
      "id": "skozok-0ff93d",
      "locationSet": {"include": ["nl"]},
      "tags": {
        "amenity": "kindergarten",
        "operator": "SKOzoK"
      }
    },
    {
      "displayName": "Sogndal kommune",
      "id": "sogndalkommune-0ff93d",
      "locationSet": {"include": ["no"]},
      "tags": {
        "amenity": "kindergarten",
        "operator": "Sogndal kommune"
      }
    },
    {
      "displayName": "Sozialpädagogischer Verein zur familienergänzenden Erziehung e.V.",
      "id": "sozialpadagogischervereinzurfamilienerganzendenerziehungev-747d0f",
      "locationSet": {"include": ["de"]},
      "tags": {
        "amenity": "kindergarten",
        "operator": "Sozialpädagogischer Verein zur familienergänzenden Erziehung e.V."
      }
    },
    {
      "displayName": "Śródmieście",
      "id": "srodmiescie-6b0035",
      "locationSet": {"include": ["pl"]},
      "tags": {
        "amenity": "kindergarten",
        "operator": "Śródmieście"
      }
    },
    {
      "displayName": "Stadt Dietikon",
      "id": "stadtdietikon-0ff93d",
      "locationSet": {"include": ["ch"]},
      "tags": {
        "amenity": "kindergarten",
        "operator": "Stadt Dietikon"
      }
    },
    {
      "displayName": "Stadt Freising",
      "id": "stadtfreising-747d0f",
      "locationSet": {"include": ["de"]},
      "tags": {
        "amenity": "kindergarten",
        "operator": "Stadt Freising"
      }
    },
    {
      "displayName": "Stadt Gelsenkirchen",
      "id": "stadtgelsenkirchen-747d0f",
      "locationSet": {"include": ["de"]},
      "tags": {
        "amenity": "kindergarten",
        "operator": "Stadt Gelsenkirchen"
      }
    },
    {
      "displayName": "Stadt Graz",
      "id": "stadtgraz-7bcf1a",
      "locationSet": {"include": ["at"]},
      "tags": {
        "amenity": "kindergarten",
        "operator": "Stadt Graz"
      }
    },
    {
      "displayName": "Stadt Herne",
      "id": "stadtherne-747d0f",
      "locationSet": {"include": ["de"]},
      "tags": {
        "amenity": "kindergarten",
        "operator": "Stadt Herne"
      }
    },
    {
      "displayName": "Stadt Krefeld",
      "id": "stadtkrefeld-747d0f",
      "locationSet": {"include": ["de"]},
      "tags": {
        "amenity": "kindergarten",
        "operator": "Stadt Krefeld"
      }
    },
    {
      "displayName": "Stadt Leipzig - Amt für Jugend und Familie",
      "id": "stadtleipzigamtfurjugendundfamilie-0ff93d",
      "locationSet": {"include": ["de"]},
      "tags": {
        "amenity": "kindergarten",
        "operator": "Stadt Leipzig - Amt für Jugend und Familie"
      }
    },
    {
      "displayName": "Stadt Leverkusen",
      "id": "stadtleverkusen-747d0f",
      "locationSet": {"include": ["de"]},
      "tags": {
        "amenity": "kindergarten",
        "operator": "Stadt Leverkusen"
      }
    },
    {
      "displayName": "Stadt Lünen",
      "id": "stadtlunen-747d0f",
      "locationSet": {"include": ["de"]},
      "tags": {
        "amenity": "kindergarten",
        "operator": "Stadt Lünen"
      }
    },
    {
      "displayName": "Stadt Mannheim",
      "id": "stadtmannheim-747d0f",
      "locationSet": {"include": ["de"]},
      "tags": {
        "amenity": "kindergarten",
        "operator": "Stadt Mannheim"
      }
    },
    {
      "displayName": "Stadt Mössingen",
      "id": "stadtmossingen-747d0f",
      "locationSet": {"include": ["de"]},
      "tags": {
        "amenity": "kindergarten",
        "operator": "Stadt Mössingen"
      }
    },
    {
      "displayName": "Stadt München",
      "id": "stadtmunchen-747d0f",
      "locationSet": {"include": ["de"]},
      "tags": {
        "amenity": "kindergarten",
        "operator": "Stadt München"
      }
    },
    {
      "displayName": "Stadt Rodgau",
      "id": "stadtrodgau-747d0f",
      "locationSet": {"include": ["de"]},
      "tags": {
        "amenity": "kindergarten",
        "operator": "Stadt Rodgau"
      }
    },
    {
      "displayName": "Stadt Ronnenberg",
      "id": "stadtronnenberg-747d0f",
      "locationSet": {"include": ["de"]},
      "tags": {
        "amenity": "kindergarten",
        "operator": "Stadt Ronnenberg"
      }
    },
    {
      "displayName": "Stadt Singen",
      "id": "stadtsingen-747d0f",
      "locationSet": {"include": ["de"]},
      "tags": {
        "amenity": "kindergarten",
        "operator": "Stadt Singen"
      }
    },
    {
      "displayName": "Stadt Steyr",
      "id": "stadtsteyr-0ff93d",
      "locationSet": {"include": ["at"]},
      "tags": {
        "amenity": "kindergarten",
        "operator": "Stadt Steyr"
      }
    },
    {
      "displayName": "Stadt Troisdorf",
      "id": "stadttroisdorf-747d0f",
      "locationSet": {"include": ["de"]},
      "tags": {
        "amenity": "kindergarten",
        "operator": "Stadt Troisdorf"
      }
    },
    {
      "displayName": "Stadt Ulm",
      "id": "stadtulm-747d0f",
      "locationSet": {"include": ["de"]},
      "tags": {
        "amenity": "kindergarten",
        "operator": "Stadt Ulm"
      }
    },
    {
      "displayName": "Stadt Weinstadt",
      "id": "stadtweinstadt-747d0f",
      "locationSet": {"include": ["de"]},
      "tags": {
        "amenity": "kindergarten",
        "operator": "Stadt Weinstadt"
      }
    },
    {
      "displayName": "Stadt Winnenden",
      "id": "stadtwinnenden-747d0f",
      "locationSet": {"include": ["de"]},
      "tags": {
        "amenity": "kindergarten",
        "operator": "Stadt Winnenden"
      }
    },
    {
      "displayName": "Stadt Wolfenbüttel",
      "id": "stadtwolfenbuttel-747d0f",
      "locationSet": {"include": ["de"]},
      "tags": {
        "amenity": "kindergarten",
        "operator": "Stadt Wolfenbüttel"
      }
    },
    {
      "displayName": "Stiftelsen Kanvas",
      "id": "stiftelsenkanvas-04f073",
      "locationSet": {"include": ["no"]},
      "tags": {
        "amenity": "kindergarten",
        "operator": "Stiftelsen Kanvas"
      }
    },
    {
      "displayName": "Stockholms kommun",
      "id": "stockholmskommun-0ff93d",
      "locationSet": {"include": ["se"]},
      "tags": {
        "amenity": "kindergarten",
        "operator": "Stockholms kommun"
      }
    },
    {
      "displayName": "Stockholms stad",
      "id": "stockholmsstad-0ff93d",
      "locationSet": {"include": ["se"]},
      "tags": {
        "amenity": "kindergarten",
        "operator": "Stockholms stad"
      }
    },
    {
      "displayName": "Sundsvalls kommun",
      "id": "sundsvallskommun-0ff93d",
      "locationSet": {"include": ["se"]},
      "tags": {
        "amenity": "kindergarten",
        "operator": "Sundsvalls kommun"
      }
    },
    {
      "displayName": "Szeged Megyei Jogú Város Önkormányzata Óvodák Igazgatósága",
      "id": "szegedmegyeijoguvarosonkormanyzataovodakigazgatosaga-389d8b",
      "locationSet": {"include": ["hu"]},
      "tags": {
        "amenity": "kindergarten",
        "operator": "Szeged Megyei Jogú Város Önkormányzata Óvodák Igazgatósága"
      }
    },
    {
      "displayName": "Tallinna Haridusamet",
      "id": "tallinnaharidusamet-22285e",
      "locationSet": {"include": ["ee"]},
      "tags": {
        "amenity": "kindergarten",
        "operator": "Tallinna Haridusamet"
      }
    },
    {
      "displayName": "Targówek",
      "id": "targowek-6b0035",
      "locationSet": {"include": ["pl"]},
      "tags": {
        "amenity": "kindergarten",
        "operator": "Targówek"
      }
    },
    {
      "displayName": "Touhula",
      "id": "touhula-0ff93d",
      "locationSet": {"include": ["fi"]},
      "tags": {
        "amenity": "kindergarten",
        "operator": "Touhula"
      }
    },
    {
      "displayName": "Trägergemeinschaft TfK im Ev. KK Gütersloh",
      "id": "tragergemeinschafttfkimevkkgutersloh-747d0f",
      "locationSet": {"include": ["de"]},
      "tags": {
        "amenity": "kindergarten",
        "operator": "Trägergemeinschaft TfK im Ev. KK Gütersloh"
      }
    },
    {
      "displayName": "Trondhjems Asylselskap",
      "id": "trondhjemsasylselskap-0ff93d",
      "locationSet": {"include": ["no"]},
      "tags": {
        "amenity": "kindergarten",
        "operator": "Trondhjems Asylselskap"
      }
    },
    {
      "displayName": "Ullensvang kommune",
      "id": "ullensvangkommune-0ff93d",
      "locationSet": {"include": ["no"]},
      "tags": {
        "amenity": "kindergarten",
        "operator": "Ullensvang kommune"
      }
    },
    {
      "displayName": "Ursus",
      "id": "ursus-0ff93d",
      "locationSet": {"include": ["pl"]},
      "tags": {
        "amenity": "kindergarten",
        "operator": "Ursus"
      }
    },
    {
      "displayName": "Ursynów",
      "id": "ursynow-0ff93d",
      "locationSet": {"include": ["pl"]},
      "tags": {
        "amenity": "kindergarten",
        "operator": "Ursynów"
      }
    },
    {
      "displayName": "Urząd Dzielnicy Bemowo M.st.warszawy",
      "id": "urzaddzielnicybemowomstwarszawy-6b0035",
      "locationSet": {"include": ["pl"]},
      "tags": {
        "amenity": "kindergarten",
        "operator": "Urząd Dzielnicy Bemowo M.st.warszawy"
      }
    },
    {
      "displayName": "Vantaan kaupunki",
      "id": "vantaankaupunki-0ff93d",
      "locationSet": {"include": ["fi"]},
      "tags": {
        "amenity": "kindergarten",
        "operator": "Vantaan kaupunki"
      }
    },
    {
      "displayName": "Värnamo kommun",
      "id": "varnamokommun-b6a588",
      "locationSet": {"include": ["se"]},
      "tags": {
        "amenity": "kindergarten",
        "operator": "Värnamo kommun"
      }
    },
    {
      "displayName": "Vihdin kunta",
      "id": "vihdinkunta-f5d7fd",
      "locationSet": {"include": ["fi"]},
      "tags": {
        "amenity": "kindergarten",
        "operator": "Vihdin kunta"
      }
    },
    {
      "displayName": "Ville d'Amiens",
      "id": "villedamiens-94d05d",
      "locationSet": {"include": ["fx"]},
      "tags": {
        "amenity": "kindergarten",
        "operator": "Ville d'Amiens"
      }
    },
    {
      "displayName": "Ville de Montpellier",
      "id": "villedemontpellier-94d05d",
      "locationSet": {"include": ["fx"]},
      "tags": {
        "amenity": "kindergarten",
        "operator": "Ville de Montpellier"
      }
    },
    {
      "displayName": "Volkssolidarität Leipziger Land/Muldental e.V.",
      "id": "volkssolidaritatleipzigerlandmuldentalev-0ff93d",
      "locationSet": {"include": ["de"]},
      "tags": {
        "amenity": "kindergarten",
        "operator": "Volkssolidarität Leipziger Land/Muldental e.V."
      }
    },
    {
      "displayName": "Włochy",
      "id": "wlochy-0ff93d",
      "locationSet": {"include": ["pl"]},
      "tags": {
        "amenity": "kindergarten",
        "operator": "Włochy"
      }
    },
    {
      "displayName": "Wola",
      "id": "wola-6b0035",
      "locationSet": {"include": ["pl"]},
      "tags": {
        "amenity": "kindergarten",
        "operator": "Wola"
      }
    },
    {
      "displayName": "Zespół Żłobków Miasta Stołecznego Warszawy",
      "id": "zespolzlobkowmiastastolecznegowarszawy-6b0035",
      "locationSet": {"include": ["pl"]},
      "tags": {
        "amenity": "kindergarten",
        "operator": "Zespół Żłobków Miasta Stołecznego Warszawy"
      }
    },
    {
      "displayName": "Żoliborz",
      "id": "zoliborz-6b0035",
      "locationSet": {"include": ["pl"]},
      "tags": {
        "amenity": "kindergarten",
        "operator": "Żoliborz",
        "operator:wikidata": "Q127098"
      }
    },
    {
      "displayName": "ГБОУ Школа №1598",
      "id": "5050ce-ecdee8",
      "locationSet": {"include": ["ru"]},
      "tags": {
        "amenity": "kindergarten",
        "operator": "ГБОУ Школа №1598"
      }
    },
    {
      "displayName": "Житомирська міська рада",
      "id": "351435-64283a",
      "locationSet": {"include": ["ua"]},
      "tags": {
        "amenity": "kindergarten",
        "operator": "Житомирська міська рада"
      }
    },
    {
      "displayName": "Международный общественный фонд (МОФ) “Инициатива Розы Отунбаевой”",
      "id": "412652-2246ab",
      "locationSet": {"include": ["kg"]},
      "tags": {
        "amenity": "kindergarten",
        "operator": "Международный общественный фонд (МОФ) “Инициатива Розы Отунбаевой”"
      }
    },
    {
      "displayName": "Міністерство освіти і науки",
      "id": "693a7d-64283a",
      "locationSet": {"include": ["ua"]},
      "matchNames": [
        "мiнiстерство освiти i науки"
      ],
      "tags": {
        "amenity": "kindergarten",
        "operator": "Міністерство освіти і науки"
      }
    },
    {
      "displayName": "Предшколска установа „Дечја радост“",
      "id": "8bf48c-916082",
      "locationSet": {"include": ["rs"]},
      "tags": {
        "amenity": "kindergarten",
        "operator": "Предшколска установа „Дечја радост“"
      }
    },
    {
      "displayName": "Столична община",
      "id": "4c66bf-563fb8",
      "locationSet": {"include": ["bg"]},
      "tags": {
        "amenity": "kindergarten",
        "operator": "Столична община",
        "operator:type": "public",
        "operator:wikidata": "Q4442915"
      }
    },
    {
      "displayName": "Управление образования Агаповского муниципального района",
      "id": "e8dfcb-0ff93d",
      "locationSet": {"include": ["ru"]},
      "tags": {
        "amenity": "kindergarten",
        "operator": "Управление образования Агаповского муниципального района"
      }
    },
    {
      "displayName": "那覇市",
      "id": "030961-07edfd",
      "locationSet": {"include": ["jp"]},
      "tags": {
        "amenity": "kindergarten",
        "operator": "那覇市"
      }
    }
  ]
}
